start=new Date('2022-11-16T00:00:00.000Z').valueOf();
sats=[{"DECAY_DATE":null,"NORAD_CAT_ID":"51718","MEAN_ANOMALY":"339.0680","EPOCH":"2022-11-15T09:16:08.578560","BSTAR":"0.00002293900000","FILE":"3657603","TLE_LINE2":"2 51718  53.2198   2.3758 0002716  21.0423 339.0680 15.08838532 41833","RA_OF_ASC_NODE":"2.3758","SITE":"AFETR","REV_AT_EPOCH":"4183","PERIAPSIS":"537.871","APOAPSIS":"541.629","TIME_SYSTEM":"UTC","REF_FRAME":"TEME","GP_ID":"217847770","CENTER_NAME":"EARTH","COUNTRY_CODE":"US","ELEMENT_SET_NO":"999","OBJECT_TYPE":"PAYLOAD","MEAN_MOTION_DOT":"0.00000077","MEAN_ELEMENT_THEORY":"SGP4","INCLINATION":"53.2198","EPHEMERIS_TYPE":"0","CLASSIFICATION_TYPE":"U","ARG_OF_PERICENTER":"21.0423","ECCENTRICITY":"0.00027160","TLE_LINE1":"1 51718U 22016E   22319.38621040  .00000077  00000-0  22939-4 0  9997","MEAN_MOTION_DDOT":"0.0000000000000","MEAN_MOTION":"15.08838532","SEMIMAJOR_AXIS":"6917.885","LAUNCH_DATE":"2022-02-21","RCS_SIZE":"LARGE","OBJECT_NAME":"STARLINK-3546","OBJECT_ID":"2022-016E","PERIOD":"95.438"},{"ARG_OF_PERICENTER":"38.4403","ECCENTRICITY":"0.00021980","TLE_LINE1":"1 51719U 22016F   22319.52604555  .00000556  00000-0  53055-4 0  9991","INCLINATION":"53.2189","CLASSIFICATION_TYPE":"U","EPHEMERIS_TYPE":"0","MEAN_ELEMENT_THEORY":"SGP4","OBJECT_ID":"2022-016F","PERIOD":"95.437","LAUNCH_DATE":"2022-02-21","RCS_SIZE":"LARGE","OBJECT_NAME":"STARLINK-3540","MEAN_MOTION":"15.08843993","SEMIMAJOR_AXIS":"6917.868","MEAN_MOTION_DDOT":"0.0000000000000","SITE":"AFETR","REV_AT_EPOCH":"4073","TLE_LINE2":"2 51719  53.2189   1.7689 0002198  38.4403 321.6746 15.08843993 40739","RA_OF_ASC_NODE":"1.7689","FILE":"3657603","BSTAR":"0.00005305500000","DECAY_DATE":null,"NORAD_CAT_ID":"51719","EPOCH":"2022-11-15T12:37:30.335520","MEAN_ANOMALY":"321.6746","MEAN_MOTION_DOT":"0.00000556","GP_ID":"217847515","COUNTRY_CODE":"US","CENTER_NAME":"EARTH","ELEMENT_SET_NO":"999","OBJECT_TYPE":"PAYLOAD","TIME_SYSTEM":"UTC","REF_FRAME":"TEME","PERIAPSIS":"538.213","APOAPSIS":"541.254"},{"MEAN_MOTION":"15.08836477","SEMIMAJOR_AXIS":"6917.891","MEAN_MOTION_DDOT":"0.0000000000000","PERIOD":"95.438","OBJECT_ID":"2022-016G","LAUNCH_DATE":"2022-02-21","RCS_SIZE":"LARGE","OBJECT_NAME":"STARLINK-3526","EPHEMERIS_TYPE":"0","CLASSIFICATION_TYPE":"U","INCLINATION":"53.2184","MEAN_ELEMENT_THEORY":"SGP4","TLE_LINE1":"1 51720U 22016G   22319.44877396  .00003216  00000-0  22008-3 0  9998","ARG_OF_PERICENTER":"31.1077","ECCENTRICITY":"0.00025000","TIME_SYSTEM":"UTC","REF_FRAME":"TEME","PERIAPSIS":"538.027","APOAPSIS":"541.486","MEAN_MOTION_DOT":"0.00003216","OBJECT_TYPE":"PAYLOAD","GP_ID":"217877214","CENTER_NAME":"EARTH","COUNTRY_CODE":"US","ELEMENT_SET_NO":"999","BSTAR":"0.00022008000000","NORAD_CAT_ID":"51720","MEAN_ANOMALY":"329.0063","EPOCH":"2022-11-15T10:46:14.070144","DECAY_DATE":null,"REV_AT_EPOCH":"4177","SITE":"AFETR","RA_OF_ASC_NODE":"2.0963","TLE_LINE2":"2 51720  53.2184   2.0963 0002500  31.1077 329.0063 15.08836477 41777","FILE":"3657676"},{"DECAY_DATE":null,"NORAD_CAT_ID":"51721","MEAN_ANOMALY":"331.2718","EPOCH":"2022-11-15T12:32:12.755904","BSTAR":"0.00004873800000","TLE_LINE2":"2 51721  53.2176   1.7779 0002361  28.8404 331.2718 15.08837287 41853","RA_OF_ASC_NODE":"1.7779","FILE":"3657676","SITE":"AFETR","REV_AT_EPOCH":"4185","PERIAPSIS":"538.120","APOAPSIS":"541.387","TIME_SYSTEM":"UTC","REF_FRAME":"TEME","GP_ID":"217877034","ELEMENT_SET_NO":"999","COUNTRY_CODE":"US","CENTER_NAME":"EARTH","OBJECT_TYPE":"PAYLOAD","MEAN_MOTION_DOT":"0.00000487","MEAN_ELEMENT_THEORY":"SGP4","INCLINATION":"53.2176","CLASSIFICATION_TYPE":"U","EPHEMERIS_TYPE":"0","ARG_OF_PERICENTER":"28.8404","ECCENTRICITY":"0.00023610","TLE_LINE1":"1 51721U 22016H   22319.52236986  .00000487  00000-0  48738-4 0  9998","MEAN_MOTION_DDOT":"0.0000000000000","MEAN_MOTION":"15.08837287","SEMIMAJOR_AXIS":"6917.889","LAUNCH_DATE":"2022-02-21","OBJECT_NAME":"STARLINK-3524","RCS_SIZE":"LARGE","OBJECT_ID":"2022-016H","PERIOD":"95.438"},{"ECCENTRICITY":"0.00023970","ARG_OF_PERICENTER":"38.1749","TLE_LINE1":"1 51722U 22016J   22319.44141315  .00005405  00000-0  35737-3 0  9990","MEAN_ELEMENT_THEORY":"SGP4","INCLINATION":"53.2182","CLASSIFICATION_TYPE":"U","EPHEMERIS_TYPE":"0","OBJECT_NAME":"STARLINK-3535","RCS_SIZE":"LARGE","LAUNCH_DATE":"2022-02-21","OBJECT_ID":"2022-016J","PERIOD":"95.437","MEAN_MOTION_DDOT":"0.0000000000000","SEMIMAJOR_AXIS":"6917.853","MEAN_MOTION":"15.08848898","TLE_LINE2":"2 51722  53.2182   2.1345 0002397  38.1749 321.9412 15.08848898 41778","RA_OF_ASC_NODE":"2.1345","FILE":"3657676","SITE":"AFETR","REV_AT_EPOCH":"4177","DECAY_DATE":null,"EPOCH":"2022-11-15T10:35:38.096160","MEAN_ANOMALY":"321.9412","NORAD_CAT_ID":"51722","BSTAR":"0.00035737000000","COUNTRY_CODE":"US","CENTER_NAME":"EARTH","ELEMENT_SET_NO":"999","GP_ID":"217877033","OBJECT_TYPE":"PAYLOAD","MEAN_MOTION_DOT":"0.00005405","APOAPSIS":"541.376","PERIAPSIS":"538.060","REF_FRAME":"TEME","TIME_SYSTEM":"UTC"},{"OBJECT_ID":"2022-016K","PERIOD":"91.330","OBJECT_NAME":"STARLINK-3531","RCS_SIZE":"LARGE","LAUNCH_DATE":"2022-02-21","SEMIMAJOR_AXIS":"6717.935","MEAN_MOTION":"15.76699885","MEAN_MOTION_DDOT":"0.0000000000000","ECCENTRICITY":"0.00031400","ARG_OF_PERICENTER":"40.8298","TLE_LINE1":"1 51723U 22016K   22319.30959694 -.00004516  00000-0 -23610-4 0  9995","INCLINATION":"53.2129","EPHEMERIS_TYPE":"0","CLASSIFICATION_TYPE":"U","MEAN_ELEMENT_THEORY":"SGP4","MEAN_MOTION_DOT":"-0.00004516","CENTER_NAME":"EARTH","COUNTRY_CODE":"US","ELEMENT_SET_NO":"999","GP_ID":"217877209","OBJECT_TYPE":"PAYLOAD","TIME_SYSTEM":"UTC","REF_FRAME":"TEME","APOAPSIS":"341.910","PERIAPSIS":"337.691","SITE":"AFETR","REV_AT_EPOCH":"4333","TLE_LINE2":"2 51723  53.2129 253.7710 0003140  40.8298 319.2958 15.76699885 43330","RA_OF_ASC_NODE":"253.7710","FILE":"3657676","BSTAR":"-0.00002361000000","DECAY_DATE":null,"EPOCH":"2022-11-15T07:25:49.175616","MEAN_ANOMALY":"319.2958","NORAD_CAT_ID":"51723"},{"INCLINATION":"53.2192","CLASSIFICATION_TYPE":"U","EPHEMERIS_TYPE":"0","MEAN_ELEMENT_THEORY":"SGP4","ARG_OF_PERICENTER":"25.9264","ECCENTRICITY":"0.00025280","TLE_LINE1":"1 51724U 22016L   22319.63276722  .00000241  00000-0  33262-4 0  9999","MEAN_MOTION":"15.08840637","SEMIMAJOR_AXIS":"6917.878","MEAN_MOTION_DDOT":"0.0000000000000","OBJECT_ID":"2022-016L","PERIOD":"95.438","LAUNCH_DATE":"2022-02-21","RCS_SIZE":"LARGE","OBJECT_NAME":"STARLINK-3529","BSTAR":"0.00003326200000","DECAY_DATE":null,"NORAD_CAT_ID":"51724","EPOCH":"2022-11-15T15:11:11.087808","MEAN_ANOMALY":"334.1854","SITE":"AFETR","REV_AT_EPOCH":"4074","TLE_LINE2":"2 51724  53.2192   1.2801 0002528  25.9264 334.1854 15.08840637 40745","FILE":"3657961","RA_OF_ASC_NODE":"1.2801","REF_FRAME":"TEME","TIME_SYSTEM":"UTC","PERIAPSIS":"537.995","APOAPSIS":"541.492","MEAN_MOTION_DOT":"0.00000241","GP_ID":"217906362","COUNTRY_CODE":"US","CENTER_NAME":"EARTH","ELEMENT_SET_NO":"999","OBJECT_TYPE":"PAYLOAD"},{"SEMIMAJOR_AXIS":"6917.893","MEAN_MOTION":"15.08835743","MEAN_MOTION_DDOT":"0.0000000000000","OBJECT_ID":"2022-016M","PERIOD":"95.438","RCS_SIZE":"LARGE","OBJECT_NAME":"STARLINK-3522","LAUNCH_DATE":"2022-02-21","INCLINATION":"53.2172","EPHEMERIS_TYPE":"0","CLASSIFICATION_TYPE":"U","MEAN_ELEMENT_THEORY":"SGP4","ECCENTRICITY":"0.00022600","ARG_OF_PERICENTER":"40.1327","TLE_LINE1":"1 51725U 22016M   22319.51133564  .00000585  00000-0  54865-4 0  9996","TIME_SYSTEM":"UTC","REF_FRAME":"TEME","APOAPSIS":"541.322","PERIAPSIS":"538.195","MEAN_MOTION_DOT":"0.00000585","ELEMENT_SET_NO":"999","COUNTRY_CODE":"US","CENTER_NAME":"EARTH","GP_ID":"217846522","OBJECT_TYPE":"PAYLOAD","BSTAR":"0.00005486500000","DECAY_DATE":null,"EPOCH":"2022-11-15T12:16:19.399296","MEAN_ANOMALY":"319.9831","NORAD_CAT_ID":"51725","SITE":"AFETR","REV_AT_EPOCH":"4072","TLE_LINE2":"2 51725  53.2172   1.8218 0002260  40.1327 319.9831 15.08835743 40720","RA_OF_ASC_NODE":"1.8218","FILE":"3657603"},{"PERIAPSIS":"537.969","APOAPSIS":"541.528","REF_FRAME":"TEME","TIME_SYSTEM":"UTC","OBJECT_TYPE":"PAYLOAD","GP_ID":"217905361","COUNTRY_CODE":"US","CENTER_NAME":"EARTH","ELEMENT_SET_NO":"999","MEAN_MOTION_DOT":"0.00001472","NORAD_CAT_ID":"51726","MEAN_ANOMALY":"330.7084","EPOCH":"2022-11-15T20:56:57.600096","DECAY_DATE":null,"BSTAR":"0.00011059000000","TLE_LINE2":"2 51726  53.2172 350.2088 0002573  29.4052 330.7084 15.08838990 40929","FILE":"3657961","RA_OF_ASC_NODE":"350.2088","REV_AT_EPOCH":"4092","SITE":"AFETR","MEAN_MOTION_DDOT":"0.0000000000000","MEAN_MOTION":"15.08838990","SEMIMAJOR_AXIS":"6917.883","LAUNCH_DATE":"2022-02-21","RCS_SIZE":"LARGE","OBJECT_NAME":"STARLINK-3527","PERIOD":"95.438","OBJECT_ID":"2022-016N","MEAN_ELEMENT_THEORY":"SGP4","CLASSIFICATION_TYPE":"U","EPHEMERIS_TYPE":"0","INCLINATION":"53.2172","TLE_LINE1":"1 51726U 22016N   22319.87288889  .00001472  00000-0  11059-3 0  9990","ARG_OF_PERICENTER":"29.4052","ECCENTRICITY":"0.00025730"},{"APOAPSIS":"541.729","PERIAPSIS":"537.809","TIME_SYSTEM":"UTC","REF_FRAME":"TEME","ELEMENT_SET_NO":"999","COUNTRY_CODE":"US","CENTER_NAME":"EARTH","GP_ID":"217877050","OBJECT_TYPE":"PAYLOAD","MEAN_MOTION_DOT":"-0.00000386","DECAY_DATE":null,"MEAN_ANOMALY":"336.6027","EPOCH":"2022-11-15T12:05:43.512576","NORAD_CAT_ID":"51727","BSTAR":"-0.00000609640000","FILE":"3657677","TLE_LINE2":"2 51727  53.2187   1.8473 0002833  23.5094 336.6027 15.08832328 41789","RA_OF_ASC_NODE":"1.8473","SITE":"AFETR","REV_AT_EPOCH":"4178","MEAN_MOTION_DDOT":"0.0000000000000","SEMIMAJOR_AXIS":"6917.904","MEAN_MOTION":"15.08832328","OBJECT_NAME":"STARLINK-3532","RCS_SIZE":"LARGE","LAUNCH_DATE":"2022-02-21","OBJECT_ID":"2022-016P","PERIOD":"95.438","MEAN_ELEMENT_THEORY":"SGP4","INCLINATION":"53.2187","CLASSIFICATION_TYPE":"U","EPHEMERIS_TYPE":"0","ECCENTRICITY":"0.00028330","ARG_OF_PERICENTER":"23.5094","TLE_LINE1":"1 51727U 22016P   22319.50397584 -.00000386  00000-0 -60964-5 0  9990"}];
